ONEWEB-0012             
1 44057U 19010A   23294.60744071  .00000461  00000+0  11720-2 0  9993
2 44057  87.9054  61.7718 0002145  69.7258 290.4104 13.16593575223983
ONEWEB-0010             
1 44058U 19010B   23294.40478066  .00000051  00000+0  99260-4 0  9992
2 44058  87.9052  61.7957 0001264  71.4083 288.7185 13.16595849224003
ONEWEB-0008             
1 44059U 19010C   23294.43010585  .00000172  00000+0  41722-3 0  9997
2 44059  87.9058  61.7861 0001795 104.1070 256.0260 13.16595598224129
ONEWEB-0007             
1 44060U 19010D   23294.45573668  .00000047  00000+0  91640-4 0  9993
2 44060  87.8957  92.2522 0001833  77.4008 282.7328 13.15548228223876
ONEWEB-0006             
1 44061U 19010E   23294.51910102  .00000143  00000+0  34614-3 0  9993
2 44061  87.8942  92.2384 0001536  79.5435 280.5868 13.15546352223932
ONEWEB-0011             
1 44062U 19010F   23294.81086017 -.00005231  00000+0 -13933-1 0  9990
2 44062  87.8944  92.1826 0001729  92.4004 267.7325 13.15571634223997
ONEWEB-0013             
1 45131U 20008A   23294.40395430  .00000851  00000+0  24374-2 0  9997
2 45131  87.9155 247.5641 0002908  77.4246 282.7206 13.09347806179150
ONEWEB-0017             
1 45132U 20008B   23294.56537035  .00000136  00000+0  35435-3 0  9991
2 45132  87.8907 228.8215 0001793  69.4515 290.6804 13.10376291180960
